[
  {
    "OBJECT_NAME": "STARLINK-11611 [DTC]",
    "OBJECT_ID": "25043G",
    "EPOCH": "2025-11-11T04:07:50.291040",
    "MEAN_MOTION": 15.70899796,
    "ECCENTRICITY": 0.0001912,
    "INCLINATION": 42.9997,
    "RA_OF_ASC_NODE": 244.9887,
    "ARG_OF_PERICENTER": 260.4746,
    "MEAN_ANOMALY": 99.5906,
    "EPHEMERIS_TYPE": 0,
    "CLASSIFICATION_TYPE": "U",
    "NORAD_CAT_ID": 63138,
    "ELEMENT_SET_NO": 999,
    "REV_AT_EPOCH": 4083,
    "BSTAR": 0.00097099,
    "MEAN_MOTION_DOT": 0.00126373,
    "MEAN_MOTION_DDOT": 0.0,
    "TLE_LINE1": "1 63138U 25043G   25315.17210985  .00126373  00000+0  97099-3 0  9992",
    "TLE_LINE2": "2 63138  42.9997 244.9887 0001912 260.4746  99.5906 15.70899796 40831",
    "COMMENT": "Grouped by shell and plane from TLE"
  },
  {
    "OBJECT_NAME": "STARLINK-11628 [DTC]",
    "OBJECT_ID": "25043H",
    "EPOCH": "2025-11-11T05:47:03.981120",
    "MEAN_MOTION": 15.70946412,
    "ECCENTRICITY": 0.0003356,
    "INCLINATION": 42.9988,
    "RA_OF_ASC_NODE": 244.6484,
    "ARG_OF_PERICENTER": 10.2459,
    "MEAN_ANOMALY": 349.8476,
    "EPHEMERIS_TYPE": 0,
    "CLASSIFICATION_TYPE": "U",
    "NORAD_CAT_ID": 63139,
    "ELEMENT_SET_NO": 999,
    "REV_AT_EPOCH": 4084,
    "BSTAR": 0.0025575999999999997,
    "MEAN_MOTION_DOT": 0.00343193,
    "MEAN_MOTION_DDOT": 0.0,
    "TLE_LINE1": "1 63139U 25043H   25315.24101830  .00343193  00000+0  25576-2 0  9990",
    "TLE_LINE2": "2 63139  42.9988 244.6484 0003356  10.2459 349.8476 15.70946412 40840",
    "COMMENT": "Grouped by shell and plane from TLE"
  },
  {
    "OBJECT_NAME": "STARLINK-11607 [DTC]",
    "OBJECT_ID": "25043J",
    "EPOCH": "2025-11-11T03:52:33.192192",
    "MEAN_MOTION": 15.70916624,
    "ECCENTRICITY": 0.0001788,
    "INCLINATION": 42.999,
    "RA_OF_ASC_NODE": 244.9022,
    "ARG_OF_PERICENTER": 305.0719,
    "MEAN_ANOMALY": 54.9981,
    "EPHEMERIS_TYPE": 0,
    "CLASSIFICATION_TYPE": "U",
    "NORAD_CAT_ID": 63140,
    "ELEMENT_SET_NO": 999,
    "REV_AT_EPOCH": 4083,
    "BSTAR": 0.0020683000000000003,
    "MEAN_MOTION_DOT": 0.00274787,
    "MEAN_MOTION_DDOT": 0.0,
    "TLE_LINE1": "1 63140U 25043J   25315.16149528  .00274787  00000+0  20683-2 0  9995",
    "TLE_LINE2": "2 63140  42.9990 244.9022 0001788 305.0719  54.9981 15.70916624 40833",
    "COMMENT": "Grouped by shell and plane from TLE"
  },
  {
    "OBJECT_NAME": "STARLINK-11522 [DTC]",
    "OBJECT_ID": "25043K",
    "EPOCH": "2025-11-11T04:00:12.553344",
    "MEAN_MOTION": 15.70942689,
    "ECCENTRICITY": 0.0001563,
    "INCLINATION": 42.9986,
    "RA_OF_ASC_NODE": 244.9435,
    "ARG_OF_PERICENTER": 10.3424,
    "MEAN_ANOMALY": 349.7475,
    "EPHEMERIS_TYPE": 0,
    "CLASSIFICATION_TYPE": "U",
    "NORAD_CAT_ID": 63141,
    "ELEMENT_SET_NO": 999,
    "REV_AT_EPOCH": 4065,
    "BSTAR": 0.002654,
    "MEAN_MOTION_DOT": 0.00356658,
    "MEAN_MOTION_DDOT": 0.0,
    "TLE_LINE1": "1 63141U 25043K   25315.16681196  .00356658  00000+0  26540-2 0  9994",
    "TLE_LINE2": "2 63141  42.9986 244.9435 0001563  10.3424 349.7475 15.70942689 40650",
    "COMMENT": "Grouped by shell and plane from TLE"
  },
  {
    "OBJECT_NAME": "STARLINK-11503 [DTC]",
    "OBJECT_ID": "25043L",
    "EPOCH": "2025-11-11T06:40:22.835712",
    "MEAN_MOTION": 15.70873711,
    "ECCENTRICITY": 0.0001354,
    "INCLINATION": 42.9989,
    "RA_OF_ASC_NODE": 244.0492,
    "ARG_OF_PERICENTER": 280.5481,
    "MEAN_ANOMALY": 79.5234,
    "EPHEMERIS_TYPE": 0,
    "CLASSIFICATION_TYPE": "U",
    "NORAD_CAT_ID": 63142,
    "ELEMENT_SET_NO": 999,
    "REV_AT_EPOCH": 4067,
    "BSTAR": 0.0024613,
    "MEAN_MOTION_DOT": 0.00328654,
    "MEAN_MOTION_DDOT": 0.0,
    "TLE_LINE1": "1 63142U 25043L   25315.27804208  .00328654  00000+0  24613-2 0  9992",
    "TLE_LINE2": "2 63142  42.9989 244.0492 0001354 280.5481  79.5234 15.70873711 40672",
    "COMMENT": "Grouped by shell and plane from TLE"
  },
  {
    "OBJECT_NAME": "STARLINK-11579 [DTC]",
    "OBJECT_ID": "25043M",
    "EPOCH": "2025-11-11T03:44:54.136896",
    "MEAN_MOTION": 15.70877903,
    "ECCENTRICITY": 0.0001257,
    "INCLINATION": 42.9989,
    "RA_OF_ASC_NODE": 244.8578,
    "ARG_OF_PERICENTER": 282.4552,
    "MEAN_ANOMALY": 77.6175,
    "EPHEMERIS_TYPE": 0,
    "CLASSIFICATION_TYPE": "U",
    "NORAD_CAT_ID": 63143,
    "ELEMENT_SET_NO": 999,
    "REV_AT_EPOCH": 4071,
    "BSTAR": 0.0006906400000000001,
    "MEAN_MOTION_DOT": 0.00089268,
    "MEAN_MOTION_DDOT": 0.0,
    "TLE_LINE1": "1 63143U 25043M   25315.15618214  .00089268  00000+0  69064-3 0  9995",
    "TLE_LINE2": "2 63143  42.9989 244.8578 0001257 282.4552  77.6175 15.70877903 40713",
    "COMMENT": "Grouped by shell and plane from TLE"
  },
  {
    "OBJECT_NAME": "STARLINK-11581 [DTC]",
    "OBJECT_ID": "25043N",
    "EPOCH": "2025-11-11T04:23:08.349792",
    "MEAN_MOTION": 15.70911123,
    "ECCENTRICITY": 0.0001116,
    "INCLINATION": 42.9989,
    "RA_OF_ASC_NODE": 245.071,
    "ARG_OF_PERICENTER": 312.8524,
    "MEAN_ANOMALY": 47.2249,
    "EPHEMERIS_TYPE": 0,
    "CLASSIFICATION_TYPE": "U",
    "NORAD_CAT_ID": 63144,
    "ELEMENT_SET_NO": 999,
    "REV_AT_EPOCH": 4083,
    "BSTAR": 0.0026912999999999998,
    "MEAN_MOTION_DOT": 0.00361409,
    "MEAN_MOTION_DDOT": 0.0,
    "TLE_LINE1": "1 63144U 25043N   25315.18273553  .00361409  00000+0  26913-2 0  9997",
    "TLE_LINE2": "2 63144  42.9989 245.0710 0001116 312.8524  47.2249 15.70911123 40837",
    "COMMENT": "Grouped by shell and plane from TLE"
  }
]